GPS BIIR-5  (PRN 22)    
1 26407U 00040A   26123.43275088  .00000012  00000+0  00000+0 0  9995
2 26407  54.8596 216.9397 0121527 302.3503  67.3502  2.00557391189057
GPS BIIR-8  (PRN 16)    
1 27663U 03005A   26123.24726713  .00000012  00000+0  00000+0 0  9999
2 27663  54.8908 216.7542 0148129  52.9781 318.1004  2.00563058170413
GPS BIIR-11 (PRN 19)    
1 28190U 04009A   26122.97836616 -.00000046  00000+0  00000+0 0  9991
2 28190  54.8685 277.5127 0113993 171.1088 160.0321  2.00556290162035
GPS BIIR-13 (PRN 02)    
1 28474U 04045A   26123.17275588 -.00000082  00000+0  00000+0 0  9994
2 28474  55.1620 326.7091 0170006 315.1989 221.4733  2.00553988157526
GPS BIIRM-1 (PRN 17)    
1 28874U 05038A   26123.48230853 -.00000039  00000+0  00000+0 0  9993
2 28874  54.9161 274.9805 0127758 295.8986  65.8575  2.00568899150941
GPS BIIRM-2 (PRN 31)    
1 29486U 06042A   26123.10014872  .00000056  00000+0  00000+0 0  9997
2 29486  54.7037 153.1291 0106136  53.5535 290.0228  2.00572439143487
GPS BIIRM-3 (PRN 12)    
1 29601U 06052A   26122.04904305  .00000008  00000+0  00000+0 0  9995
2 29601  54.9423 215.8348 0086265  90.3462 270.6791  2.00555614142488
GPS BIIRM-4 (PRN 15)    
1 32260U 07047A   26121.85535787 -.00000032  00000+0  00000+0 0  9995
2 32260  54.0623  81.9743 0164941  86.5740 275.2728  2.00557683135886
GPS BIIRM-5 (PRN 29)    
1 32384U 07062A   26123.42756881 -.00000040  00000+0  00000+0 0  9993
2 32384  55.0692 275.9508 0034742 162.7585  19.4452  2.00557476134615
GPS BIIRM-6 (PRN 07)    
1 32711U 08012A   26123.26615416  .00000054  00000+0  00000+0 0  9997
2 32711  54.4896 151.7195 0209979 247.2127 110.6170  2.00571277132858
GPS BIIRM-8 (PRN 05)    
1 35752U 09043A   26123.25253168 -.00000094  00000+0  00000+0 0  9996
2 35752  56.1835  29.2169 0053120  81.5570 281.5013  2.00556871122467
GPS BIIF-1  (PRN 25)    
1 36585U 10022A   26123.08199759  .00000018  00000+0  00000+0 0  9991
2 36585  54.2756 210.3790 0126565  66.0886 291.1655  2.00560271116683
GPS BIIF-3  (PRN 24)    
1 38833U 12053A   26119.45673442  .00000077  00000+0  00000+0 0  9992
2 38833  53.5755 145.5957 0178090  65.1816 296.7302  2.00566727 98466
GPS BIIF-4  (PRN 27)    
1 39166U 13023A   26122.81245240 -.00000043  00000+0  00000+0 0  9999
2 39166  54.5411 270.8211 0141916  50.7230 310.4891  2.00563861 94973
GPS BIIF-5  (PRN 30)    
1 39533U 14008A   26123.31195074  .00000052  00000+0  00000+0 0  9995
2 39533  53.6460 151.1502 0083915 230.3158 129.0031  2.00556991 88786
GPS BIIF-6  (PRN 06)    
1 39741U 14026A   26123.58762054 -.00000083  00000+0  00000+0 0  9998
2 39741  56.5189 333.2540 0038802 326.8183  32.9702  2.00564464 87641
GPS BIIF-7  (PRN 09)    
1 40105U 14045A   26123.17976786 -.00000011  00000+0  00000+0 0  9990
2 40105  55.3246  90.2570 0031805 119.0255 241.2596  2.00555534 85179
GPS BIIF-8  (PRN 03)    
1 40294U 14068A   26121.05902661 -.00000102  00000+0  00000+0 0  9991
2 40294  56.9570  32.7707 0065480  69.0002 291.7081  2.00573442 84264
GPS BIIF-9  (PRN 26)    
1 40534U 15013A   26123.18826981  .00000021  00000+0  00000+0 0  9994
2 40534  53.1731 206.0387 0108900  39.9900 320.8688  2.00554140 80927
GPS BIIF-10 (PRN 08)    
1 40730U 15033A   26123.34760809 -.00000037  00000+0  00000+0 0  9996
2 40730  54.0192 268.9342 0115030  29.9565 330.6602  2.00558691 79098
GPS BIIF-11 (PRN 10)    
1 41019U 15062A   26122.90670227 -.00000092  00000+0  00000+0 0  9995
2 41019  56.9306  32.5559 0111283 231.4723 127.5442  2.00567177 76927
GPS BIIF-12 (PRN 32)    
1 41328U 16007A   26122.99483243 -.00000010  00000+0  00000+0 0  9997
2 41328  55.4969  91.2501 0096137 247.1544 111.7956  2.00553971 74934
GPS BIII-1  (PRN 04)    
1 43873U 18109A   26123.41430766 -.00000003  00000+0  00000+0 0  9991
2 43873  55.6556  93.9521 0038051 198.8670 357.0832  2.00559811 54170
GPS BIII-2  (PRN 18)    
1 44506U 19056A   26123.01809925 -.00000086  00000+0  00000+0 0  9991
2 44506  55.6575 332.9378 0059792 197.3027 334.9379  2.00569540 49169
GPS BIII-3  (PRN 23)    
1 45854U 20041A   26123.11612186 -.00000093  00000+0  00000+0 0  9994
2 45854  56.6421  30.6924 0062405 204.9648 338.2352  2.00559931 43137
GPS BIII-4  (PRN 14)    
1 46826U 20078A   26120.42467845 -.00000003  00000+0  00000+0 0  9996
2 46826  53.9873 212.7153 0071272 205.9275 168.8082  2.00565043 40555
GPS BIII-5  (PRN 11)    
1 48859U 21054A   26123.64945346 -.00000086  00000+0  00000+0 0  9994
2 48859  55.1943 334.2501 0024100 229.4746 139.4317  2.00572206 35866
GPS BIII-6  (PRN 28)    
1 55268U 23009A   26123.33768285  .00000054  00000+0  00000+0 0  9993
2 55268  55.1155 150.2816 0005727 314.7995 226.6747  2.00574738 24345
GPS BIII-7  (PRN 01)    
1 62339U 24242A   26123.47173895 -.00000088  00000+0  00000+0 0  9990
2 62339  54.8672 335.9943 0016981   3.1280 357.9117  2.00571059 10364
GPS BIII-8  (PRN 21)    
1 64202U 25116A   26120.52613795 -.00000106  00000+0  00000+0 0  9994
2 64202  55.2044  33.0485 0009185 336.4647 239.4016  2.00549603  6915
GPS BIII-9  (PRN 20)    
1 67588U 26017A   26122.32980685 -.00000014  00000+0  00000+0 0  9998
2 67588  55.0584  90.5948 0023297 254.2862 105.4236  2.00572171430698
GPS BIII-10 (PRN 13)    
1 68791U 26087A   26112.34150053  .00002417  00000+0  19778-2 0  9994
2 68791  54.9968 210.8716 5942075 270.2176  26.1146  4.03281331    56
